#aV2010  3 12  0  0   .00000000      96 DD+AD WGS84 FIT  NGA
## 1574 432000.00000000   900.00000000 55267  .0000000000000
+   31     1  2  3  4  5  6  7  8  9 10 11 12 13 14 15 16 17
+         18 19 20 21 22 23 24 26 27 28 29 30 31 32  0  0  0
+          0  0  0  0  0  0  0  0  0  0  0  0  0  0  0  0  0
+          0  0  0  0  0  0  0  0  0  0  0  0  0  0  0  0  0
+          0  0  0  0  0  0  0  0  0  0  0  0  0  0  0  0  0
++         0  0  0  0  0  0  0  0  0  0  0  0  0  0  0  0  0
++         0  0  0  0  0  0  0  0  0  0  0  0  0  0  0  0  0
++         0  0  0  0  0  0  0  0  0  0  0  0  0  0  0  0  0
++         0  0  0  0  0  0  0  0  0  0  0  0  0  0  0  0  0
++         0  0  0  0  0  0  0  0  0  0  0  0  0  0  0  0  0
%c cc cc ccc ccc cccc cccc cccc cccc ccccc ccccc ccccc ccccc
%c cc cc ccc ccc cccc cccc cccc cccc ccccc ccccc ccccc ccccc
%f  0.0000000  0.000000000  0.00000000000  0.000000000000000
%f  0.0000000  0.000000000  0.00000000000  0.000000000000000
%i    0    0    0    0      0      0      0      0         0
%i    0    0    0    0      0      0      0      0         0
/*      NGA, ST. LOUIS,MO.                                  
/*   EPHEMERIS COMPUTED FROM  3 DAYS OF DATA                
/* CCCCCCCCCCCCCCCCCCCCCCCCCCCCCCCCCCCCCCCCCCCCCCCCCCCCCCCCC
/* CCCCCCCCCCCCCCCCCCCCCCCCCCCCCCCCCCCCCCCCCCCCCCCCCCCCCCCCC
*  2010  3 12 10 15   .00000000                                                 
P  1 -15860.721129  21077.953569   2394.603762    -97.720613                    
V  1   -614.843986  -4213.260909  31705.642908      -.040122                    
P  2 -14294.734173 -22436.285294  -3339.670227    235.483843                    
V  2    802.592784  -5070.404473  30628.025967       .038911                    
P  3  18152.735160  11265.817565 -16345.535784    527.067757                    
V  3 -19918.793672   3305.814619 -19941.007319       .051623                    
P  4  -3859.840627 -24108.769891   9829.492281     34.833548                    
V  4   8765.651104  10042.921974  27960.820986       .089059                    
P  5  -8806.013001 -13528.206830 -21098.522380     -4.040933                    
V  5  15373.690631 -21921.797368   7731.478082       .014091                    
P  6  14302.724170  13367.271787 -17823.483992    690.183503                    
V  6 -23062.011835   1637.682025 -16978.747658      -.070995                    
P  7  11483.390476 -10209.963707 -21656.145102      1.762392                    
V  7  12551.371163  24434.175401  -5018.768282      -.004749                    
P  8   3309.206782 -20284.261277 -16533.390404      4.048011                    
V  8   9466.101433  18928.590476 -21855.753425       .002898                    
P  9 -17807.865876 -10805.481388  15837.079425    111.044865                    
V  9  -8518.317953 -19593.741453 -22000.520646       .021768                    
P 10  -2518.420685 -19081.382838 -18330.414661    -37.661288                    
V 10  14673.406366 -17876.764313  17105.174842      -.009509                    
P 11  20407.262925   3636.967060  16531.868429    -50.117978                    
V 11  11568.695009  18483.170188 -17701.194842      -.021615                    
P 12 -18256.904325   3814.521003  18910.260849   -139.731997                    
V 12  12309.740399 -20552.513424  16218.439434       .046227                    
P 13  22227.069539  -5904.471710 -13432.401333    306.093882                    
V 13  16454.123842   3533.480558  25918.623429      -.002029                    
P 14  -5146.248644  14087.838095  22045.309227     21.081514                    
V 14 -27403.501979  -3314.933536  -4422.395583       .041355                    
P 15 -24011.920670  -7374.974785  -8789.826263   -298.981414                    
V 15  11276.759665  -2139.511251 -28835.480501       .037799                    
P 16   2938.755035  18277.408630 -18893.930781    -50.261924                    
V 16 -15060.786736  18943.946887  16201.101475      -.039556                    
P 17   4368.586563 -14834.895786  21669.701068    136.366175                    
V 17  27179.329797   2752.892288  -3817.347481       .029173                    
P 18 -17604.571750  18950.692076  -4823.272246     54.630676                    
V 18    632.731063  -7533.570634 -30664.553522       .025544                    
P 19  24296.457785   8495.798018  -7118.130584    -20.939525                    
V 19  -9279.647723   1221.102674 -29773.042329      -.024111                    
P 20  19123.400826  -7652.011078  16599.462892     59.682176                    
V 20  -9382.432501  19406.339574  19647.837739      -.007225                    
P 21  -9335.716551  14441.014669 -19772.378959    -46.167209                    
V 21 -12749.111190 -22798.027827 -11093.420847      -.025235                    
P 22 -10619.718624  23424.051456   6617.440722    177.062877                    
V 22  -7608.896024   4719.322942 -29706.520367      -.008249                    
P 23  26475.701883   -606.362423  -3636.343554    377.603531                    
V 23   4364.453995   2590.791871  31290.378690      -.010824                    
P 24 -11346.513819  11604.002563 -20992.978481    269.787191                    
V 24 -11243.072223 -24365.344433  -7115.526632       .032500                    
P 26 -21823.213590   6187.390067  13616.142609    -27.092126                    
V 26 -17683.566342  -3595.019155 -25269.543116      -.039674                    
P 27 -18680.168996 -11934.659867  15412.896067    133.413138                    
V 27  -7796.459076 -16577.297529 -23219.997100       .033113                    
P 28  12285.706721 -22943.472806   4893.998556    -20.665434                    
V 28   5481.669248  -3046.156363 -31326.534288       .007137                    
P 29 -23554.712628   5420.580390 -10879.152166    104.445161                    
V 29 -13671.304190  -3790.169920  27510.197920       .029100                    
P 30 -18503.625309  14791.103793  11568.864534    223.838744                    
V 30   5624.193792 -14502.603180  26700.645858       .033451                    
P 31   5742.900874  24501.853955   8426.931127    -47.767252                    
V 31  -6635.843031  -8362.520794  29754.534718       .017428                    
P 32  15959.446836   3782.036218  21179.413806     76.225774                    
V 32 -15641.502262  20986.877436   8498.563463      -.085454                    
EOF
